[	
	[],
	[],
  	[
		{
			"names": {
				"fr": "La Lune",
				"en": "The Moon"
			},
			"satellite_type": "major",
			"diameter": 1728.1,
			"axial_tilt": 6.68,
			"mean_density": 3344,
			"gravity": 1.62,
			"escape_velocity": 2.38,
			"rotation_period": 655.7,
			"mass": 0.07346e+24,
			"volume": 2.1968e+10,
			"mean_temperature": -20,
			"length_of_day":708.7,
			"orbit": {
				"semi_major_axis": 0.3844e+6,
				"perihelion_distance": 0.3633e+6,
				"aphelion_distance": 0.4055e+6,
				"eccentricity": 0.0549,
				"inclination": 5.145,
				"orbital_period": 27.3217,
				"orbital_speed": 1.0
			}
		}
  	], [
		{
			"names": {
				"fr": "Phobos",
				"en": "Phobos"
			},
			"satellite_type": "major",
			"diameter": 1728.1,
			"axial_tilt": 6.68,
			"mean_density": 3344,
			"gravity": 1.62,
			"escape_velocity": 2.38,
			"rotation_period": 655.7,
			"mass": 0.07346e+24,
			"volume": 2.1968e+10,
			"mean_temperature": -20,
			"length_of_day":708.7,
			"orbit": {
				"semi_major_axis": 0.3844e+6,
				"perihelion_distance": 0.3633e+6,
				"aphelion_distance": 0.4055e+6,
				"eccentricity": 0.0549,
				"inclination": 5.145,
				"orbital_period": 27.3217,
				"orbital_speed": 1.0
			}
		},{
			"names": {
				"fr": "Phobos",
				"en": "Phobos"
			},
			"satellite_type": "major",
			"diameter": 1728.1,
			"axial_tilt": 6.68,
			"mean_density": 3344,
			"gravity": 1.62,
			"escape_velocity": 2.38,
			"rotation_period": 655.7,
			"mass": 0.07346e+24,
			"volume": 2.1968e+10,
			"mean_temperature": -20,
			"length_of_day":708.7,
			"orbit": {
				"semi_major_axis": 0.3844e+6,
				"perihelion_distance": 0.3633e+6,
				"aphelion_distance": 0.4055e+6,
				"eccentricity": 0.0549,
				"inclination": 5.145,
				"orbital_period": 27.3217,
				"orbital_speed": 1.0
			}
		}
	], [{
			"names": {
				"fr": "Aoede (XLI, S/2003 J7)",
				"en": "Aoede (XLI, S/2003 J7)"
			},
			"satellite_type": "minor",
			"diameter": 4,
			"orbit": {
				"semi_major_axis": 23981000,
				"eccentricity": 0.432,
				"inclination": 158.3,
				"ascending_node": 187.1,
      	"perihelion_argument": 74.5,
				"orbital_period": 761.5
			}
		},{
			"names": {
				"fr": "Callirrhoe (JXVII, S/1999 J1)",
				"en": "Callirrhoe (JXVII, S/1999 J1)"
			},
			"satellite_type": "minor",
			"diameter": 7,
			"orbit": {
				"semi_major_axis": 24102000,
				"eccentricity": 0.283,
				"inclination": 147.1,
				"ascending_node": 281.1,
      	"perihelion_argument": 49.3,
				"orbital_period": 758.8
			}
		},{
			"names": {
				"fr": "Cyllene (XLVIII, S/2003 J13)",
				"en": "Cyllene (XLVIII, S/2003 J13)"
			},
			"satellite_type": "minor",
			"diameter": 2,
			"orbit": {
				"semi_major_axis": 24349000,
				"eccentricity": 0.319,
				"inclination": 149.3,
				"ascending_node": 266.4,
      	"perihelion_argument": 214.0,
				"orbital_period": 737.8
			}
		},{
			"names": {
				"fr": "Kore (XLIX, S/2003 J14)",
				"en": "Kore (XLIX, S/2003 J14)"
			},
			"satellite_type": "minor",
			"diameter": 2,
			"orbit": {
				"semi_major_axis": 24543000,
				"eccentricity": 0.325,
				"inclination": 145.0,
				"ascending_node": 324.7,
      	"perihelion_argument": 152.4,
				"orbital_period": 779.2
			}
		},{
			"names": {
				"fr": "(S/2003 J2)",
				"en": "(S/2003 J2)"
			},
			"satellite_type": "minor",
			"diameter": 2,
			"orbit": {
				"semi_major_axis": 28570410,
				"eccentricity": 0.380,
				"inclination": 151.8,
				"orbital_period": 982.5
			}
		},{
			"names": {
				"fr": "(S/2003 J3)",
				"en": "(S/2003 J3)"
			},
			"satellite_type": "minor",
			"diameter": 2,
			"orbit": {
				"semi_major_axis": 28570410,
				"eccentricity": 0.241,
				"inclination": 143.7,
				"orbital_period": 504.0
			}
		},{
			"names": {
				"fr": "(S/2003 J4)",
				"en": "(S/2003 J4)"
			},
			"satellite_type": "minor",
			"diameter": 2,
			"orbit": {
				"semi_major_axis": 23257920,
				"eccentricity": 0.204,
				"inclination": 144.9,
				"orbital_period": 723.2
			}
		},{
			"names": {
				"fr": "(S/2003 J5)",
				"en": "(S/2003 J5)"
			},
			"satellite_type": "minor",
			"diameter": 4,
			"orbit": {
				"semi_major_axis": 24084180,
				"eccentricity": 0.210,
				"inclination": 165.0,
				"orbital_period": 759.7
			}
		},{
			"names": {
				"fr": "(S/2003 J9)",
				"en": "(S/2003 J9)"
			},
			"satellite_type": "minor",
			"diameter": 1,
			"orbit": {
				"semi_major_axis": 22441680,
				"eccentricity": 0.269,
				"inclination": 164.5,
				"orbital_period": 683.0
			}
		},{
			"names": {
				"fr": "(S/2003 J10)",
				"en": "(S/2003 J10)"
			},
			"satellite_type": "minor",
			"diameter": 2,
			"orbit": {
				"semi_major_axis": 24249600,
				"eccentricity": 0.214,
				"inclination": 164.1,
				"orbital_period": 767.0
			}
		},{
			"names": {
				"fr": "(S/2003 J12)",
				"en": "(S/2003 J12)"
			},
			"satellite_type": "minor",
			"diameter": 1,
			"orbit": {
				"semi_major_axis": 19002480,
				"eccentricity": 0.376,
				"inclination": 145.8,
				"orbital_period": 533.3
			}
		},{
			"names": {
				"fr": "(S/2003 J15)",
				"en": "(S/2003 J15)"
			},
			"satellite_type": "minor",
			"diameter": 2,
			"orbit": {
				"semi_major_axis": 22000000,
				"eccentricity": 0.110,
				"inclination": 140.8,
				"orbital_period": 668.4
			}
		},{
			"names": {
				"fr": "(S/2003 J16)",
				"en": "(S/2003 J16)"
			},
			"satellite_type": "minor",
			"diameter": 2,
			"orbit": {
				"semi_major_axis": 21000000,
				"eccentricity": 0.270,
				"inclination": 148.6,
				"orbital_period": 595.4
			}
		},{
			"names": {
				"fr": "(S/2003 J18)",
				"en": "(S/2003 J18)"
			},
			"satellite_type": "minor",
			"diameter": 2,
			"orbit": {
				"semi_major_axis": 20700000,
				"eccentricity": 0.119,
				"inclination": 146.5,
				"orbital_period": 606.3
			}
		},{
			"names": {
				"fr": "(S/2003 J19)",
				"en": "(S/2003 J19)"
			},
			"satellite_type": "minor",
			"diameter": 2,
			"orbit": {
				"semi_major_axis": 22800000,
				"eccentricity": 0.334,
				"inclination": 162.9,
				"orbital_period": 701.3
			}
		},{
			"names": {
				"fr": "(S/2003 J23)",
				"en": "(S/2003 J23)"
			},
			"satellite_type": "minor",
			"diameter": 2,
			"orbit": {
				"semi_major_axis": 24055500,
				"eccentricity": 0.309,
				"inclination": 149.2,
				"orbital_period": 759.7
			}
		},{
			"names": {
				"fr": "(JLI, S/2010 J1)",
				"en": "(JLI, S/2010 J1)"
			},
			"satellite_type": "minor",
			"diameter": 2,
			"orbit": {
				"semi_major_axis": 23314335,
				"eccentricity": 0.320,
				"inclination": 163.2,
				"orbital_period": 723.2
			}
		},{
			"names": {
				"fr": "(JLII, S/2010 J2)",
				"en": "(JLII, S/2010 J2)"
			},
			"satellite_type": "minor",
			"diameter": 1,
			"orbit": {
				"semi_major_axis": 20307150,
				"eccentricity": 0.307,
				"inclination": 150.4,
				"orbital_period": 588.1
			}
		},{
			"names": {
				"fr": "(S/2011 J1)",
				"en": "(S/2011 J1)"
			},
			"satellite_type": "minor",
			"diameter": 1,
			"orbit": {
				"semi_major_axis": 20155290,
				"eccentricity": 0.296,
				"inclination": 162.8,
				"orbital_period": 580.7
			}
		},{
			"names": {
				"fr": "(S/2011 J2)",
				"en": "(S/2011 J2)"
			},
			"satellite_type": "minor",
			"diameter": 1,
			"orbit": {
				"semi_major_axis": 23329710,
				"eccentricity": 0.387,
				"inclination": 151.9,
				"orbital_period": 726.8
			}
		}
	], [], [], [], []
]